{
  "type": "FeatureCollection",
  "features": [
    {
      "type": "Feature",
      "properties": {
        "norad_id": 54741,
        "name": "GALAXY 35 (G-35)",
        "group": "intelsat",
        "lat": 0.0024638760734236537,
        "lon": -151.40165757446584,
        "alt_km": 35780.08111992854,
        "timestamp": "2025-12-09T14:52:25.834076+00:00",
        "meta_object_name": "GALAXY 35 (G-35)",
        "meta_object_id": "2022-170A",
        "meta_epoch": "2025-12-09T07:05:27.071808",
        "meta_mean_motion": 1.00271036,
        "meta_eccentricity": 0.00026527,
        "meta_inclination": 0.0259,
        "meta_ra_of_asc_node": 89.578,
        "meta_arg_of_pericenter": 175.3934,
        "meta_mean_anomaly": 186.592,
        "meta_ephemeris_type": 0,
        "meta_classification_type": "U",
        "meta_norad_cat_id": 54741,
        "meta_element_set_no": 999,
        "meta_rev_at_epoch": 1099,
        "meta_bstar": 0,
        "meta_mean_motion_dot": -1.6e-06,
        "meta_mean_motion_ddot": 0,
        "tle_line1": "1 54741U 22170A   25343.29545222 -.00000160  00000+0  00000+0 0  9997",
        "tle_line2": "2 54741   0.0259  89.5780 0002652 175.3934 186.5920  1.00271036 10993"
      },
      "geometry": {
        "type": "Point",
        "coordinates": [
          -151.40165757446584,
          0.0024638760734236537
        ]
      }
    },
    {
      "type": "Feature",
      "properties": {
        "norad_id": 54742,
        "name": "GALAXY 36 (G-36)",
        "group": "intelsat",
        "lat": -0.015670664307528847,
        "lon": -147.29819037770162,
        "alt_km": 35785.62414257678,
        "timestamp": "2025-12-09T14:52:25.834088+00:00",
        "meta_object_name": "GALAXY 36 (G-36)",
        "meta_object_id": "2022-170B",
        "meta_epoch": "2025-12-09T07:07:50.530368",
        "meta_mean_motion": 1.00270712,
        "meta_eccentricity": 5.732e-05,
        "meta_inclination": 0.0089,
        "meta_ra_of_asc_node": 9.5837,
        "meta_arg_of_pericenter": 274.4861,
        "meta_mean_anomaly": 172.1777,
        "meta_ephemeris_type": 0,
        "meta_classification_type": "U",
        "meta_norad_cat_id": 54742,
        "meta_element_set_no": 999,
        "meta_rev_at_epoch": 1087,
        "meta_bstar": 0,
        "meta_mean_motion_dot": -1.83e-06,
        "meta_mean_motion_ddot": 0,
        "tle_line1": "1 54742U 22170B   25343.29711262 -.00000183  00000+0  00000+0 0  9992",
        "tle_line2": "2 54742   0.0089   9.5837 0000573 274.4861 172.1777  1.00270712 10878"
      },
      "geometry": {
        "type": "Point",
        "coordinates": [
          -147.29819037770162,
          -0.015670664307528847
        ]
      }
    },
    {
      "type": "Feature",
      "properties": {
        "norad_id": 57493,
        "name": "GALAXY 37 (G-37)",
        "group": "intelsat",
        "lat": -0.006892842570947699,
        "lon": 174.68827234007463,
        "alt_km": 35785.95634494377,
        "timestamp": "2025-12-09T14:52:25.834100+00:00",
        "meta_object_name": "GALAXY 37 (G-37)",
        "meta_object_id": "2023-112A",
        "meta_epoch": "2025-12-09T07:13:13.498752",
        "meta_mean_motion": 1.0027157,
        "meta_eccentricity": 0.00023386,
        "meta_inclination": 0.011,
        "meta_ra_of_asc_node": 342.0687,
        "meta_arg_of_pericenter": 281.7043,
        "meta_mean_anomaly": 155.83,
        "meta_ephemeris_type": 0,
        "meta_classification_type": "U",
        "meta_norad_cat_id": 57493,
        "meta_element_set_no": 999,
        "meta_rev_at_epoch": 863,
        "meta_bstar": 0,
        "meta_mean_motion_dot": 5e-07,
        "meta_mean_motion_ddot": 0,
        "tle_line1": "1 57493U 23112A   25343.30085068  .00000050  00000+0  00000+0 0  9997",
        "tle_line2": "2 57493   0.0110 342.0687 0002338 281.7043 155.8300  1.00271570  8635"
      },
      "geometry": {
        "type": "Point",
        "coordinates": [
          174.68827234007463,
          -0.006892842570947699
        ]
      }
    }
  ]
}